NORAD_CAT_ID,OBJECT_NAME,OBJECT_TYPE,EPOCH,MEAN_MOTION,ECCENTRICITY,INCLINATION,RA_OF_ASC_NODE,ARG_OF_PERICENTER,MEAN_ANOMALY,BSTAR,MEAN_MOTION_DOT,MEAN_MOTION_DDOT,TLE_LINE0,TLE_LINE1,TLE_LINE2,SEMIMAJOR_AXIS,PERIOD,APOGEE,PERIGEE,DECAYED
51979.0,STARLINK-3656,PAYLOAD,2023-08-23 11:21:24,15.08843825,0.0001443,53.2165,250.5369,86.6849,273.4308,4.0733e-05,3.6e-06,0.0,0 STARLINK-3656,1 51979U 22025Z   23235.47319761  .00000360  00000-0  40733-4 0  9995,2 51979  53.2165 250.5369 0001443  86.6849 273.4308 15.08843825 81895,6917.869,95.437,540.732,538.735,0.0
51979.0,STARLINK-3656,PAYLOAD,2023-08-24 09:36:48,15.08836324,0.0001518,53.2172,246.3757,95.9956,264.1209,6.0393e-05,6.73e-06,0.0,0 STARLINK-3656,1 51979U 22025Z   23236.40056330  .00000673  00000-0  60393-4 0  9990,2 51979  53.2172 246.3757 0001518  95.9956 264.1209 15.08836324 80928,6917.892,95.438,540.807,538.706,0.0
51979.0,STARLINK-3656,PAYLOAD,2023-08-25 12:38:21,15.08842636,0.0001409,53.2162,241.3191,87.5201,272.5952,7.9113e-05,9.71e-06,0.0,0 STARLINK-3656,1 51979U 22025Z   23237.52664094  .00000971  00000-0  79113-4 0  9997,2 51979  53.2162 241.3191 0001409  87.5201 272.5952 15.08842636 81093,6917.872,95.437,540.712,538.763,0.0
51979.0,STARLINK-3656,PAYLOAD,2023-08-26 12:29:08,15.08843806,0.0001395,53.2164,236.8573,91.4702,268.6449,0.00010087,1.318e-05,0.0,0 STARLINK-3656,1 51979U 22025Z   23238.52024051  .00001318  00000-0  10087-3 0  9991,2 51979  53.2164 236.8573 0001395  91.4702 268.6449 15.08843806 81246,6917.869,95.437,540.699,538.769,0.0
51979.0,STARLINK-3656,PAYLOAD,2023-08-27 04:23:00,15.08837383,0.0001472,53.2172,233.8814,91.3102,268.8058,1.8259e-05,3e-08,0.0,0 STARLINK-3656,1 51979U 22025Z   23239.18264830  .00000003  00000-0  18259-4 0  9995,2 51979  53.2172 233.8814 0001472  91.3102 268.8058 15.08837383 82454,6917.888,95.438,540.772,538.735,0.0
51979.0,STARLINK-3656,PAYLOAD,2023-08-28 05:49:10,15.08844576,0.0001392,53.2169,229.1231,103.8304,256.2843,9.537e-05,1.23e-05,0.0,0 STARLINK-3656,1 51979U 22025Z   23240.24248057  .00001230  00000-0  95370-4 0  9999,2 51979  53.2169 229.1231 0001392 103.8304 256.2843 15.08844576 82618,6917.866,95.437,540.694,538.768,0.0
51979.0,STARLINK-3656,PAYLOAD,2023-08-28 16:56:52,15.08840204,0.0001475,53.2172,227.0425,95.3583,264.7577,4.0808e-05,3.62e-06,0.0,0 STARLINK-3656,1 51979U 22025Z   23240.70616433  .00000362  00000-0  40808-4 0  9998,2 51979  53.2172 227.0425 0001475  95.3583 264.7577 15.08840204 81576,6917.88,95.438,540.765,538.724,0.0
51979.0,STARLINK-3656,PAYLOAD,2023-08-29 08:50:43,15.08842294,0.0001517,53.2173,224.0715,95.6945,264.422,7.0886e-05,8.4e-06,0.0,0 STARLINK-3656,1 51979U 22025Z   23241.36856331  .00000840  00000-0  70886-4 0  9994,2 51979  53.2173 224.0715 0001517  95.6945 264.4220 15.08842294 81672,6917.873,95.437,540.788,538.689,0.0
51979.0,STARLINK-3656,PAYLOAD,2023-08-30 02:19:59,15.08834068,0.0001514,53.2176,220.7989,95.8108,264.3056,-6.1082e-05,-1.26e-05,0.0,0 STARLINK-3656,1 51979U 22025Z   23242.09721356 -.00001260  00000-0 -61082-4 0  9990,2 51979  53.2176 220.7989 0001514  95.8108 264.3056 15.08834068 82892,6917.899,95.438,540.811,538.716,0.0
51979.0,STARLINK-3656,PAYLOAD,2023-08-30 15:03:04,15.08836812,0.0001517,53.217,218.4201,91.7429,268.3737,-3.8293e-05,-8.97e-06,0.0,0 STARLINK-3656,1 51979U 22025Z   23242.62713208 -.00000897  00000-0 -38293-4 0  9999,2 51979  53.2170 218.4201 0001517  91.7429 268.3737 15.08836812 81866,6917.89,95.438,540.805,538.706,0.0
51979.0,STARLINK-3656,PAYLOAD,2023-08-31 00:35:23,15.08835268,0.0001456,53.217,216.6372,93.1195,266.9964,3.0985e-05,2.05e-06,0.0,0 STARLINK-3656,1 51979U 22025Z   23243.02457253  .00000205  00000-0  30985-4 0  9990,2 51979  53.2170 216.6372 0001456  93.1195 266.9964 15.08835268 83034,6917.895,95.438,540.767,538.753,0.0
51979.0,STARLINK-3656,PAYLOAD,2023-09-01 08:23:05,15.08841779,0.0001444,53.2168,210.6901,90.8394,269.2763,0.0001072,1.419e-05,0.0,0 STARLINK-3656,1 51979U 22025Z   23244.34937021  .00001419  00000-0  10720-3 0  9994,2 51979  53.2168 210.6901 0001444  90.8394 269.2763 15.08841779 83234,6917.875,95.437,540.739,538.741,0.0
51979.0,STARLINK-3656,PAYLOAD,2023-09-01 21:06:11,15.08838321,0.0001522,53.2161,208.3108,91.5829,268.5337,7.0861e-05,8.4e-06,0.0,0 STARLINK-3656,1 51979U 22025Z   23244.87929409  .00000840  00000-0  70861-4 0  9993,2 51979  53.2161 208.3108 0001522  91.5829 268.5337 15.08838321 82202,6917.886,95.438,540.803,538.698,0.0
51979.0,STARLINK-3656,PAYLOAD,2023-09-02 09:49:15,15.0884417,0.000156,53.2163,205.9322,92.0295,268.0876,9.9484e-05,1.296e-05,0.0,0 STARLINK-3656,1 51979U 22025Z   23245.40920932  .00001296  00000-0  99484-4 0  9993,2 51979  53.2163 205.9322 0001560  92.0295 268.0876 15.08844170 82280,6917.868,95.437,540.812,538.653,0.0
51979.0,STARLINK-3656,PAYLOAD,2023-09-02 14:35:25,15.08839495,0.0001552,53.2169,205.0385,78.7985,281.3181,1.3512e-05,-7.3e-07,0.0,0 STARLINK-3656,1 51979U 22025Z   23245.60793643 -.00000073  00000-0  13512-4 0  9993,2 51979  53.2169 205.0385 0001552  78.7985 281.3181 15.08839495 82319,6917.882,95.438,540.821,538.673,0.0
51979.0,STARLINK-3656,PAYLOAD,2023-09-03 09:40:02,15.08851018,0.0001439,53.2171,201.4716,89.1464,270.9694,0.00010028,1.309e-05,0.0,0 STARLINK-3656,1 51979U 22025Z   23246.40280441  .00001309  00000-0  10028-3 0  9999,2 51979  53.2171 201.4716 0001439  89.1464 270.9694 15.08851018 83546,6917.847,95.437,540.707,538.716,0.0
51979.0,STARLINK-3656,PAYLOAD,2023-09-03 14:26:13,15.0882828,0.0001978,53.2158,200.5784,90.7427,269.3792,-4.2017e-05,-9.57e-06,0.0,0 STARLINK-3656,1 51979U 22025Z   23246.60154458 -.00000957  00000-0 -42017-4 0  9993,2 51979  53.2158 200.5784 0001978  90.7427 269.3792 15.08828280 83570,6917.916,95.438,541.15,538.413,0.0
51979.0,STARLINK-3656,PAYLOAD,2023-09-04 03:09:18,15.08836157,0.0001476,53.2175,198.1997,94.8185,265.2976,-2.102e-05,-6.22e-06,0.0,0 STARLINK-3656,1 51979U 22025Z   23247.13145889 -.00000622  00000-0 -21020-4 0  9990,2 51979  53.2175 198.1997 0001476  94.8185 265.2976 15.08836157 83656,6917.892,95.438,540.778,538.736,0.0
51979.0,STARLINK-3656,PAYLOAD,2023-09-04 07:55:26,15.0884309,0.0001495,53.2167,197.3078,92.9988,267.1175,4.8006e-05,4.76e-06,0.0,0 STARLINK-3656,1 51979U 22025Z   23247.33017271  .00000476  00000-0  48006-4 0  9993,2 51979  53.2167 197.3078 0001495  92.9988 267.1175 15.08843090 83688,6917.871,95.437,540.77,538.702,0.0
51979.0,STARLINK-3656,PAYLOAD,2023-09-04 23:49:18,15.08835259,0.0001465,53.2173,194.3339,96.6038,263.5121,3.6391e-05,2.91e-06,0.0,0 STARLINK-3656,1 51979U 22025Z   23247.99257876  .00000291  00000-0  36391-4 0  9991,2 51979  53.2173 194.3339 0001465  96.6038 263.5121 15.08835259 83786,6917.895,95.438,540.773,538.746,0.0
51979.0,STARLINK-3656,PAYLOAD,2023-09-05 06:10:50,15.08845184,0.0001457,53.2175,193.1445,99.359,260.7567,2.9722e-05,1.85e-06,0.0,0 STARLINK-3656,1 51979U 22025Z   23248.25753306  .00000185  00000-0  29722-4 0  9992,2 51979  53.2175 193.1445 0001457  99.3590 260.7567 15.08845184 83823,6917.865,95.437,540.737,538.722,0.0
51979.0,STARLINK-3656,PAYLOAD,2023-09-06 01:15:28,15.08837724,0.000146,53.2175,189.5767,100.7412,259.3745,9.6452e-05,1.247e-05,0.0,0 STARLINK-3656,1 51979U 22025Z   23249.05241642  .00001247  00000-0  96452-4 0  9990,2 51979  53.2175 189.5767 0001460 100.7412 259.3745 15.08837724 83949,6917.887,95.438,540.762,538.742,0.0
51979.0,STARLINK-3656,PAYLOAD,2023-09-06 20:20:06,15.08838487,0.00015,53.2177,186.0081,100.1245,259.9916,8.1726e-05,1.013e-05,0.0,0 STARLINK-3656,1 51979U 22025Z   23249.84729789  .00001013  00000-0  81726-4 0  9999,2 51979  53.2177 186.0081 0001500 100.1245 259.9916 15.08838487 82958,6917.885,95.438,540.788,538.712,0.0
51979.0,STARLINK-3656,PAYLOAD,2023-09-07 02:41:39,15.08842485,0.0001255,53.2169,184.8191,84.4479,275.6656,3.0397e-05,1.96e-06,0.0,0 STARLINK-3656,1 51979U 22025Z   23250.11225722  .00000196  00000-0  30397-4 0  9998,2 51979  53.2169 184.8191 0001255  84.4479 275.6656 15.08842485 84105,6917.873,95.437,540.606,538.87,0.0
51979.0,STARLINK-3656,PAYLOAD,2023-09-07 18:35:30,15.08836448,0.0001275,53.2182,181.848,87.2815,272.8323,3.1706e-05,2.17e-06,0.0,0 STARLINK-3656,1 51979U 22025Z   23250.77466153  .00000217  00000-0  31706-4 0  9994,2 51979  53.2182 181.8480 0001275  87.2815 272.8323 15.08836448 84208,6917.891,95.438,540.638,538.874,0.0
51979.0,STARLINK-3656,PAYLOAD,2023-09-08 05:43:12,15.08845616,0.0001227,53.2178,179.7647,89.9226,270.1907,0.00010649,1.408e-05,0.0,0 STARLINK-3656,1 51979U 22025Z   23251.23833407  .00001408  00000-0  10649-3 0  9991,2 51979  53.2178 179.7647 0001227  89.9226 270.1907 15.08845616 84279,6917.863,95.437,540.577,538.879,0.0
51979.0,STARLINK-3656,PAYLOAD,2023-09-09 02:23:13,15.0883906,0.0001423,53.2192,175.9001,80.7143,279.401,6.9997e-05,8.26e-06,0.0,0 STARLINK-3656,1 51979U 22025Z   23252.09946121  .00000826  00000-0  69997-4 0  9998,2 51979  53.2192 175.9001 0001423  80.7143 279.4010 15.08839060 84400,6917.883,95.438,540.733,538.764,0.0
51979.0,STARLINK-3656,PAYLOAD,2023-09-10 03:49:23,15.08848098,0.0001313,53.2179,171.1411,81.9016,278.2125,7.7837e-05,9.51e-06,0.0,0 STARLINK-3656,1 51979U 22025Z   23253.15929666  .00000951  00000-0  77837-4 0  9992,2 51979  53.2179 171.1411 0001313  81.9016 278.2125 15.08848098 84560,6917.856,95.437,540.629,538.812,0.0
51979.0,STARLINK-3656,PAYLOAD,2023-09-11 02:04:47,15.0884138,0.0001521,53.2181,166.9799,75.7185,284.3976,5.864e-05,6.45e-06,0.0,0 STARLINK-3656,1 51979U 22025Z   23254.08666455  .00000645  00000-0  58640-4 0  9990,2 51979  53.2181 166.9799 0001521  75.7185 284.3976 15.08841380 84708,6917.876,95.437,540.793,538.689,0.0
51979.0,STARLINK-3656,PAYLOAD,2023-09-11 11:37:06,15.08843668,0.0001376,53.2177,165.1948,85.1594,274.9555,4.264e-05,3.91e-06,0.0,0 STARLINK-3656,1 51979U 22025Z   23254.48410243  .00000391  00000-0  42640-4 0  9997,2 51979  53.2177 165.1948 0001376  85.1594 274.9555 15.08843668 83659,6917.869,95.437,540.686,538.782,0.0
